[{"OBJECT_NAME":"OBJECT H","OBJECT_ID":"2024-092H","EPOCH":"2026-03-09T22:10:57.432576","MEAN_MOTION":14.31801309,"ECCENTRICITY":0.00131217,"INCLINATION":98.6549,"RA_OF_ASC_NODE":188.1402,"ARG_OF_PERICENTER":138.5744,"MEAN_ANOMALY":221.6437,"EPHEMERIS_TYPE":0,"CLASSIFICATION_TYPE":"U","NORAD_CAT_ID":59780,"ELEMENT_SET_NO":999,"REV_AT_EPOCH":9469,"BSTAR":0.00013575326,"MEAN_MOTION_DOT":3.19e-6,"MEAN_MOTION_DDOT":0},{"OBJECT_NAME":"COSMOS 2251 DEB","OBJECT_ID":"1993-036BCN","EPOCH":"2026-02-16T14:27:48.280896","MEAN_MOTION":14.30929428,"ECCENTRICITY":0.0082039,"INCLINATION":74.0163,"RA_OF_ASC_NODE":25.1656,"ARG_OF_PERICENTER":57.9736,"MEAN_ANOMALY":302.935,"EPHEMERIS_TYPE":0,"CLASSIFICATION_TYPE":"U","NORAD_CAT_ID":36528,"ELEMENT_SET_NO":999,"REV_AT_EPOCH":65369,"BSTAR":0.00053556,"MEAN_MOTION_DOT":1.435e-5,"MEAN_MOTION_DDOT":0}]
